[{"OBJECT_NAME":"JILIN-1 GAOFEN 2F","OBJECT_ID":"2021-097A","EPOCH":"2026-03-09T22:15:16.366464","MEAN_MOTION":15.06938169,"ECCENTRICITY":0.00186372,"INCLINATION":97.6538,"RA_OF_ASC_NODE":195.5232,"ARG_OF_PERICENTER":201.1609,"MEAN_ANOMALY":158.885,"EPHEMERIS_TYPE":0,"CLASSIFICATION_TYPE":"U","NORAD_CAT_ID":49338,"ELEMENT_SET_NO":999,"REV_AT_EPOCH":24136,"BSTAR":0.0003789548,"MEAN_MOTION_DOT":5.624e-5,"MEAN_MOTION_DDOT":0},{"OBJECT_NAME":"STARLINK-31020","OBJECT_ID":"2023-191B","EPOCH":"2026-03-09T10:52:28.035264","MEAN_MOTION":15.02533555,"ECCENTRICITY":0.00015041,"INCLINATION":43.0043,"RA_OF_ASC_NODE":109.1542,"ARG_OF_PERICENTER":271.2933,"MEAN_ANOMALY":88.7737,"EPHEMERIS_TYPE":0,"CLASSIFICATION_TYPE":"U","NORAD_CAT_ID":58509,"ELEMENT_SET_NO":999,"REV_AT_EPOCH":12538,"BSTAR":-2.4424236e-5,"MEAN_MOTION_DOT":-5.34e-6,"MEAN_MOTION_DDOT":0}]
